[Satellite]
VERSION=1.1
NAME=COSMOS 2436 (723)
NICKNAME=COSMOS 2436 (723)
TLE1=1 32395U 07065C   19317.43422244  .00000005  00000-0  10000-3 0  9995
TLE2=2 32395  64.6691 273.9188 0014850 331.0608 217.1257  2.13280866 92421
STATUS=0
